*******************************************************************************
Ephemeris / WWW_USER Mon Mar 10 07:43:37 2025 Pasadena, USA      / Horizons    
*******************************************************************************
Target body name: (2013 AZ60)                     {source: JPL#49}
Center body name: Earth (399)                     {source: DE441}
Center-site name: Mauna Kea
*******************************************************************************
Start time      : A.D. 2018-Oct-22 04:03:00.0000 UT      
Stop  time      : A.D. 2018-Oct-22 16:09:00.0000 UT      
Step-size       : 1 minutes
*******************************************************************************
Target pole/equ : undefined
Target radii    : undefined                                                    
Center geodetic : 204.5278, 19.8260847, 4.21024   {E-lon(deg),Lat(deg),Alt(km)}
Center cylindric: 204.5278, 6006.35451, 2151.0229 {E-lon(deg),Dxy(km),Dz(km)}
Center pole/equ : ITRF93                          {East-longitude positive}
Center radii    : 6378.137, 6378.137, 6356.752 km {Equator_a, b, pole_c}       
Target primary  : Sun
Vis. interferer : MOON (R_eq= 1737.400) km        {source: DE441}
Rel. light bend : Sun                             {source: DE441}
Rel. lght bnd GM: 1.3271E+11 km^3/s^2                                          
Small-body perts: Yes                             {source: SB441-N16}
Atmos refraction: NO (AIRLESS)
RA format       : HMS
Time format     : CAL 
Calendar mode   : Mixed Julian/Gregorian
RTS-only print  : NO       
EOP file        : eop.250307.p250603                                           
EOP coverage    : DATA-BASED 1962-JAN-20 TO 2025-MAR-07. PREDICTS-> 2025-JUN-02
Units conversion: 1 au= 149597870.700 km, c= 299792.458 km/s, 1 day= 86400.0 s 
Table cut-offs 1: Elevation (-90.0deg=NO ),Airmass (>38.000=NO), Daylight (YES)
Table cut-offs 2: Solar elongation (  0.0,180.0=NO ),Local Hour Angle( 0.0=NO )
Table cut-offs 3: RA/DEC angular rate (     0.0=NO )                           
*******************************************************************************
Initial IAU76/J2000 heliocentric ecliptic osculating elements (au, days, deg.):
  EPOCH=  2457400.5 ! 2016-Jan-13.00 (TDB)         Residual RMS= .1326         
   EC= .9891456016948332   QR= 7.910280980491398   TP= 2456989.3208761909      
   OM= 349.2102750469422   W=  158.2320149266156   IN= 16.53862471305098       
  Equivalent ICRF heliocentric cartesian coordinates (au, au/d):
   X=-8.215502218447208E+00  Y= 1.083611838195559E+00  Z= 3.298265209415168E-01
  VX=-2.822922434188891E-03 VY=-6.008885131743716E-03 VZ=-5.184670886061429E-03
Asteroid physical parameters (km, seconds, rotational period in hours):        
   GM= n.a.                RAD= n.a.               ROTPER= 9.39                
   H= 10.3                 G= .150                 B-V= n.a.                   
                           ALBEDO= n.a.            STYP= n.a.                  
*******************************************************************************
 Date__(UT)__HR:MN     R.A._________(ICRF)_________DEC
******************************************************
$$SOE
 2018-Oct-22 12:15  m  13 50 33.378808 -23 04 28.13488
 2018-Oct-22 12:16  m  13 50 33.396648 -23 04 28.24186
 2018-Oct-22 12:17  m  13 50 33.414487 -23 04 28.34885
 2018-Oct-22 12:18  m  13 50 33.432326 -23 04 28.45584
 2018-Oct-22 12:19  m  13 50 33.450165 -23 04 28.56284
 2018-Oct-22 12:20  m  13 50 33.468003 -23 04 28.66984
 2018-Oct-22 12:21  m  13 50 33.485841 -23 04 28.77684
 2018-Oct-22 12:22  m  13 50 33.503678 -23 04 28.88385
 2018-Oct-22 12:23  m  13 50 33.521514 -23 04 28.99087
 2018-Oct-22 12:24  m  13 50 33.539350 -23 04 29.09788
 2018-Oct-22 12:25  m  13 50 33.557186 -23 04 29.20491
 2018-Oct-22 12:26  m  13 50 33.575021 -23 04 29.31193
 2018-Oct-22 12:27  m  13 50 33.592856 -23 04 29.41896
 2018-Oct-22 12:28  m  13 50 33.610690 -23 04 29.52600
 2018-Oct-22 12:29  m  13 50 33.628523 -23 04 29.63304
 2018-Oct-22 12:30  m  13 50 33.646356 -23 04 29.74009
 2018-Oct-22 12:31  m  13 50 33.664189 -23 04 29.84714
 2018-Oct-22 12:32  m  13 50 33.682021 -23 04 29.95419
 2018-Oct-22 12:33  m  13 50 33.699852 -23 04 30.06125
 2018-Oct-22 12:34  m  13 50 33.717683 -23 04 30.16831
 2018-Oct-22 12:35  m  13 50 33.735513 -23 04 30.27538
 2018-Oct-22 12:36  m  13 50 33.753343 -23 04 30.38245
 2018-Oct-22 12:37  m  13 50 33.771172 -23 04 30.48952
 2018-Oct-22 12:38  m  13 50 33.789001 -23 04 30.59660
 2018-Oct-22 12:39  m  13 50 33.806829 -23 04 30.70369
 2018-Oct-22 12:40  m  13 50 33.824656 -23 04 30.81078
 2018-Oct-22 12:41  m  13 50 33.842483 -23 04 30.91787
 2018-Oct-22 12:42  m  13 50 33.860310 -23 04 31.02496
 2018-Oct-22 12:43  m  13 50 33.878136 -23 04 31.13207
 2018-Oct-22 12:44  m  13 50 33.895961 -23 04 31.23917
 2018-Oct-22 12:45  m  13 50 33.913786 -23 04 31.34628
 2018-Oct-22 12:46  m  13 50 33.931610 -23 04 31.45339
 2018-Oct-22 12:47  m  13 50 33.949433 -23 04 31.56051
 2018-Oct-22 12:48  m  13 50 33.967256 -23 04 31.66763
 2018-Oct-22 12:49  m  13 50 33.985079 -23 04 31.77476
 2018-Oct-22 12:50  m  13 50 34.002900 -23 04 31.88189
 2018-Oct-22 12:51  m  13 50 34.020721 -23 04 31.98903
 2018-Oct-22 12:52  m  13 50 34.038542 -23 04 32.09616
 2018-Oct-22 12:53  m  13 50 34.056362 -23 04 32.20331
 2018-Oct-22 12:54  m  13 50 34.074181 -23 04 32.31045
 2018-Oct-22 12:55  m  13 50 34.092000 -23 04 32.41761
 2018-Oct-22 12:56  m  13 50 34.109818 -23 04 32.52476
 2018-Oct-22 12:57  m  13 50 34.127636 -23 04 32.63192
 2018-Oct-22 12:58  m  13 50 34.145453 -23 04 32.73908
 2018-Oct-22 12:59  m  13 50 34.163269 -23 04 32.84625
 2018-Oct-22 13:00  m  13 50 34.181085 -23 04 32.95342
 2018-Oct-22 13:01  m  13 50 34.198900 -23 04 33.06060
 2018-Oct-22 13:02  m  13 50 34.216714 -23 04 33.16778
 2018-Oct-22 13:03  m  13 50 34.234528 -23 04 33.27496
 2018-Oct-22 13:04  m  13 50 34.252341 -23 04 33.38215
 2018-Oct-22 13:05  m  13 50 34.270154 -23 04 33.48934
 2018-Oct-22 13:06  m  13 50 34.287966 -23 04 33.59653
 2018-Oct-22 13:07  m  13 50 34.305777 -23 04 33.70373
 2018-Oct-22 13:08  m  13 50 34.323588 -23 04 33.81093
 2018-Oct-22 13:09  m  13 50 34.341398 -23 04 33.91814
 2018-Oct-22 13:10  m  13 50 34.359207 -23 04 34.02535
 2018-Oct-22 13:11  m  13 50 34.377016 -23 04 34.13256
 2018-Oct-22 13:12  m  13 50 34.394824 -23 04 34.23978
 2018-Oct-22 13:13  m  13 50 34.412631 -23 04 34.34700
 2018-Oct-22 13:14  m  13 50 34.430438 -23 04 34.45423
 2018-Oct-22 13:15  m  13 50 34.448244 -23 04 34.56146
 2018-Oct-22 13:16  m  13 50 34.466049 -23 04 34.66869
 2018-Oct-22 13:17  m  13 50 34.483854 -23 04 34.77593
 2018-Oct-22 13:18  m  13 50 34.501658 -23 04 34.88317
 2018-Oct-22 13:19  m  13 50 34.519461 -23 04 34.99041
 2018-Oct-22 13:20  m  13 50 34.537264 -23 04 35.09766
 2018-Oct-22 13:21  m  13 50 34.555066 -23 04 35.20491
 2018-Oct-22 13:22  m  13 50 34.572867 -23 04 35.31217
 2018-Oct-22 13:23  m  13 50 34.590668 -23 04 35.41943
 2018-Oct-22 13:24  m  13 50 34.608468 -23 04 35.52669
 2018-Oct-22 13:25  m  13 50 34.626267 -23 04 35.63396
 2018-Oct-22 13:26  m  13 50 34.644066 -23 04 35.74123
 2018-Oct-22 13:27  m  13 50 34.661863 -23 04 35.84850
 2018-Oct-22 13:28  m  13 50 34.679661 -23 04 35.95578
 2018-Oct-22 13:29  m  13 50 34.697457 -23 04 36.06306
 2018-Oct-22 13:30  m  13 50 34.715253 -23 04 36.17034
 2018-Oct-22 13:31  m  13 50 34.733048 -23 04 36.27763
 2018-Oct-22 13:32  m  13 50 34.750842 -23 04 36.38492
 2018-Oct-22 13:33  m  13 50 34.768636 -23 04 36.49222
 2018-Oct-22 13:34  m  13 50 34.786429 -23 04 36.59952
 2018-Oct-22 13:35  m  13 50 34.804221 -23 04 36.70682
 2018-Oct-22 13:36  m  13 50 34.822012 -23 04 36.81412
 2018-Oct-22 13:37  m  13 50 34.839803 -23 04 36.92143
 2018-Oct-22 13:38  m  13 50 34.857593 -23 04 37.02874
 2018-Oct-22 13:39  m  13 50 34.875382 -23 04 37.13606
 2018-Oct-22 13:40  m  13 50 34.893171 -23 04 37.24338
 2018-Oct-22 13:41  m  13 50 34.910959 -23 04 37.35070
 2018-Oct-22 13:42  m  13 50 34.928746 -23 04 37.45802
 2018-Oct-22 13:43  m  13 50 34.946532 -23 04 37.56535
 2018-Oct-22 13:44  m  13 50 34.964318 -23 04 37.67268
 2018-Oct-22 13:45  m  13 50 34.982103 -23 04 37.78002
 2018-Oct-22 13:46  m  13 50 34.999887 -23 04 37.88736
 2018-Oct-22 13:47  m  13 50 35.017670 -23 04 37.99470
 2018-Oct-22 13:48  m  13 50 35.035453 -23 04 38.10204
 2018-Oct-22 13:49  m  13 50 35.053235 -23 04 38.20939
 2018-Oct-22 13:50  m  13 50 35.071016 -23 04 38.31674
 2018-Oct-22 13:51  m  13 50 35.088796 -23 04 38.42410
 2018-Oct-22 13:52  m  13 50 35.106576 -23 04 38.53146
 2018-Oct-22 13:53  m  13 50 35.124354 -23 04 38.63882
 2018-Oct-22 13:54  m  13 50 35.142133 -23 04 38.74618
 2018-Oct-22 13:55  m  13 50 35.159910 -23 04 38.85355
 2018-Oct-22 13:56  m  13 50 35.177686 -23 04 38.96092
 2018-Oct-22 13:57  m  13 50 35.195462 -23 04 39.06829
 2018-Oct-22 13:58  m  13 50 35.213237 -23 04 39.17567
 2018-Oct-22 13:59  m  13 50 35.231011 -23 04 39.28305
 2018-Oct-22 14:00  m  13 50 35.248785 -23 04 39.39043
 2018-Oct-22 14:01  m  13 50 35.266557 -23 04 39.49781
 2018-Oct-22 14:02  m  13 50 35.284329 -23 04 39.60520
 2018-Oct-22 14:03  m  13 50 35.302100 -23 04 39.71259
 2018-Oct-22 14:04  m  13 50 35.319871 -23 04 39.81999
 2018-Oct-22 14:05  m  13 50 35.337640 -23 04 39.92738
 2018-Oct-22 14:06  m  13 50 35.355409 -23 04 40.03478
 2018-Oct-22 14:07  m  13 50 35.373177 -23 04 40.14218
 2018-Oct-22 14:08  m  13 50 35.390944 -23 04 40.24959
 2018-Oct-22 14:09  m  13 50 35.408711 -23 04 40.35700
 2018-Oct-22 14:10  m  13 50 35.426476 -23 04 40.46441
 2018-Oct-22 14:11  m  13 50 35.444241 -23 04 40.57182
 2018-Oct-22 14:12  m  13 50 35.462005 -23 04 40.67924
 2018-Oct-22 14:13  m  13 50 35.479768 -23 04 40.78666
 2018-Oct-22 14:14  m  13 50 35.497530 -23 04 40.89408
 2018-Oct-22 14:15  m  13 50 35.515292 -23 04 41.00151
 2018-Oct-22 14:16  m  13 50 35.533053 -23 04 41.10893
 2018-Oct-22 14:17  m  13 50 35.550813 -23 04 41.21636
